ONEWEB-0080             
1 45426U 20020C   25170.47847716  .00000299  00000+0  80684-3 0  9992
2 45426  87.8842  93.3584 0002147  88.1078 272.0296 13.11414638255167
ONEWEB-0090             
1 45427U 20020D   25170.49795452 -.00000460  00000+0 -13339-2 0  9998
2 45427  87.8847  93.3549 0002038  78.5710 281.5646 13.11414898255138
ONEWEB-0061             
1 45428U 20020E   25170.14856535  .00000407  00000+0  11123-2 0  9999
2 45428  87.8844  93.4067 0001994  80.1451 279.9902 13.11418572255042
ONEWEB-0081             
1 45429U 20020F   25170.51152111 -.00000390  00000+0 -11367-2 0  9993
2 45429  87.8844  93.3548 0001786  82.4159 277.7172 13.11418189255202
ONEWEB-0069             
1 45430U 20020G   25170.50051159 -.00000431  00000+0 -12514-2 0  9995
2 45430  87.8845  93.3475 0001860  77.6147 282.5189 13.11416125255132
ONEWEB-0031             
1 45431U 20020H   25170.54884384  .00000529  00000+0  14560-2 0  9993
2 45431  87.8851  93.3676 0002204  79.0937 281.0439 13.11415646255127
ONEWEB-0027             
1 45432U 20020J   25170.48368150 -.00000340  00000+0 -90873-3 0  9990
2 45432  87.9064  78.0536 0002156  70.9482 289.1883 13.17648972258593
ONEWEB-0064             
1 45433U 20020K   25170.24196108  .00000517  00000+0  14223-2 0  9995
2 45433  87.8845  93.4221 0002157  77.1620 282.9749 13.11414989255116
